start=new Date('2022-07-08T00:00:00.000Z').valueOf();
sats=[{"REF_FRAME":"TEME","MEAN_ELEMENT_THEORY":"SGP4","OBJECT_ID":"2022-052AY","APOAPSIS":"351.960","MEAN_MOTION_DOT":"0.00041443","GP_ID":"207632761","EPHEMERIS_TYPE":"0","SITE":"AFETR","BSTAR":"0.00029819000000","ECCENTRICITY":"0.00032700","TLE_LINE1":"1 52644U 22052AY  22188.91667824  .00041443  00000-0  29819-3 0  9994","ELEMENT_SET_NO":"999","REV_AT_EPOCH":"130","LAUNCH_DATE":"2022-05-14","PERIAPSIS":"347.560","CLASSIFICATION_TYPE":"U","RA_OF_ASC_NODE":"171.9452","PERIOD":"91.533","ARG_OF_PERICENTER":"10.5664","OBJECT_NAME":"STARLINK-3985","COUNTRY_CODE":"US","NORAD_CAT_ID":"52644","MEAN_MOTION_DDOT":"0.0000000000000","FILE":"3509470","TIME_SYSTEM":"UTC","TLE_LINE2":"2 52644  53.2148 171.9452 0003270  10.5664 276.0256 15.73199916  1302","DECAY_DATE":null,"SEMIMAJOR_AXIS":"6727.895","EPOCH":"2022-07-07T22:00:00.999936","MEAN_ANOMALY":"276.0256","CENTER_NAME":"EARTH","RCS_SIZE":"LARGE","INCLINATION":"53.2148","MEAN_MOTION":"15.73199916","OBJECT_TYPE":"PAYLOAD"},{"MEAN_MOTION":"15.73248802","INCLINATION":"53.2141","OBJECT_TYPE":"PAYLOAD","DECAY_DATE":null,"RCS_SIZE":"LARGE","MEAN_ANOMALY":"270.4764","EPOCH":"2022-07-07T22:00:00.999936","CENTER_NAME":"EARTH","SEMIMAJOR_AXIS":"6727.756","TIME_SYSTEM":"UTC","FILE":"3509470","MEAN_MOTION_DDOT":"0.0000000000000","TLE_LINE2":"2 52645  53.2141 171.9369 0002669  19.6097 270.4764 15.73248802  1305","OBJECT_NAME":"STARLINK-3973","PERIOD":"91.530","ARG_OF_PERICENTER":"19.6097","NORAD_CAT_ID":"52645","COUNTRY_CODE":"US","CLASSIFICATION_TYPE":"U","PERIAPSIS":"347.825","RA_OF_ASC_NODE":"171.9369","TLE_LINE1":"1 52645U 22052AZ  22188.91667824 -.00013889  00000-0 -94467-4 0  9992","ECCENTRICITY":"0.00026690","BSTAR":"-0.00009446700000","LAUNCH_DATE":"2022-05-14","REV_AT_EPOCH":"130","ELEMENT_SET_NO":"999","MEAN_MOTION_DOT":"-0.00013889","GP_ID":"207632585","APOAPSIS":"351.417","OBJECT_ID":"2022-052AZ","SITE":"AFETR","EPHEMERIS_TYPE":"0","REF_FRAME":"TEME","MEAN_ELEMENT_THEORY":"SGP4"},{"RA_OF_ASC_NODE":"171.9417","PERIAPSIS":"347.852","CLASSIFICATION_TYPE":"U","REV_AT_EPOCH":"130","ELEMENT_SET_NO":"999","LAUNCH_DATE":"2022-05-14","BSTAR":"-0.00009870200000","TLE_LINE1":"1 52646U 22052BA  22188.91667824 -.00014470  00000-0 -98702-4 0  9996","ECCENTRICITY":"0.00027210","EPHEMERIS_TYPE":"0","SITE":"AFETR","OBJECT_ID":"2022-052BA","APOAPSIS":"351.513","MEAN_MOTION_DOT":"-0.00014470","GP_ID":"207632687","MEAN_ELEMENT_THEORY":"SGP4","REF_FRAME":"TEME","OBJECT_TYPE":"PAYLOAD","INCLINATION":"53.2154","MEAN_MOTION":"15.73227221","SEMIMAJOR_AXIS":"6727.818","MEAN_ANOMALY":"268.7261","CENTER_NAME":"EARTH","EPOCH":"2022-07-07T22:00:00.999936","RCS_SIZE":"LARGE","DECAY_DATE":null,"TLE_LINE2":"2 52646  53.2154 171.9417 0002721  19.6837 268.7261 15.73227221  1309","MEAN_MOTION_DDOT":"0.0000000000000","FILE":"3509470","TIME_SYSTEM":"UTC","COUNTRY_CODE":"US","NORAD_CAT_ID":"52646","PERIOD":"91.532","ARG_OF_PERICENTER":"19.6837","OBJECT_NAME":"STARLINK-3832"},{"MEAN_MOTION_DOT":"0.00061984","GP_ID":"207633214","APOAPSIS":"351.782","OBJECT_ID":"2022-052BB","SITE":"AFETR","EPHEMERIS_TYPE":"0","REF_FRAME":"TEME","MEAN_ELEMENT_THEORY":"SGP4","CLASSIFICATION_TYPE":"U","PERIAPSIS":"347.892","RA_OF_ASC_NODE":"171.9341","TLE_LINE1":"1 52647U 22052BB  22188.91667824  .00061984  00000-0  44325-3 0  9998","ECCENTRICITY":"0.00028910","BSTAR":"0.00044325000000","LAUNCH_DATE":"2022-05-14","REV_AT_EPOCH":"130","ELEMENT_SET_NO":"999","TIME_SYSTEM":"UTC","FILE":"3509470","MEAN_MOTION_DDOT":"0.0000000000000","TLE_LINE2":"2 52647  53.2141 171.9341 0002891  12.3508 279.0416 15.73173200  1309","OBJECT_NAME":"STARLINK-3846","ARG_OF_PERICENTER":"12.3508","PERIOD":"91.535","NORAD_CAT_ID":"52647","COUNTRY_CODE":"US","MEAN_MOTION":"15.73173200","INCLINATION":"53.2141","OBJECT_TYPE":"PAYLOAD","DECAY_DATE":null,"RCS_SIZE":"LARGE","EPOCH":"2022-07-07T22:00:00.999936","CENTER_NAME":"EARTH","MEAN_ANOMALY":"279.0416","SEMIMAJOR_AXIS":"6727.972"},{"REF_FRAME":"TEME","MEAN_ELEMENT_THEORY":"SGP4","OBJECT_ID":"2022-052BC","APOAPSIS":"351.511","MEAN_MOTION_DOT":"-0.00001063","GP_ID":"207633116","EPHEMERIS_TYPE":"0","SITE":"AFETR","BSTAR":"-0.00000313890000","ECCENTRICITY":"0.00025870","TLE_LINE1":"1 52648U 22052BC  22188.91667824 -.00001063  00000-0 -31389-5 0  9991","ELEMENT_SET_NO":"999","REV_AT_EPOCH":"130","LAUNCH_DATE":"2022-05-14","PERIAPSIS":"348.030","CLASSIFICATION_TYPE":"U","RA_OF_ASC_NODE":"171.9406","PERIOD":"91.533","ARG_OF_PERICENTER":"19.3582","OBJECT_NAME":"STARLINK-3854","COUNTRY_CODE":"US","NORAD_CAT_ID":"52648","MEAN_MOTION_DDOT":"0.0000000000000","FILE":"3509470","TIME_SYSTEM":"UTC","TLE_LINE2":"2 52648  53.2146 171.9406 0002587  19.3582 269.6333 15.73196486  1302","DECAY_DATE":null,"SEMIMAJOR_AXIS":"6727.905","EPOCH":"2022-07-07T22:00:00.999936","CENTER_NAME":"EARTH","MEAN_ANOMALY":"269.6333","RCS_SIZE":"LARGE","INCLINATION":"53.2146","MEAN_MOTION":"15.73196486","OBJECT_TYPE":"PAYLOAD"},{"SEMIMAJOR_AXIS":"6727.916","MEAN_ANOMALY":"282.2996","EPOCH":"2022-07-07T22:00:00.999936","CENTER_NAME":"EARTH","RCS_SIZE":"LARGE","DECAY_DATE":null,"OBJECT_TYPE":"PAYLOAD","INCLINATION":"53.2140","MEAN_MOTION":"15.73192616","COUNTRY_CODE":"US","NORAD_CAT_ID":"52649","PERIOD":"91.534","ARG_OF_PERICENTER":"8.4889","OBJECT_NAME":"STARLINK-3868","TLE_LINE2":"2 52649  53.2140 171.9351 0003258   8.4889 282.2996 15.73192616  1308","MEAN_MOTION_DDOT":"0.0000000000000","FILE":"3509470","TIME_SYSTEM":"UTC","REV_AT_EPOCH":"130","ELEMENT_SET_NO":"999","LAUNCH_DATE":"2022-05-14","BSTAR":"0.00002901000000","TLE_LINE1":"1 52649U 22052BD  22188.91667824  .00003449  00000-0  29010-4 0  9997","ECCENTRICITY":"0.00032580","RA_OF_ASC_NODE":"171.9351","PERIAPSIS":"347.589","CLASSIFICATION_TYPE":"U","MEAN_ELEMENT_THEORY":"SGP4","REF_FRAME":"TEME","EPHEMERIS_TYPE":"0","SITE":"AFETR","OBJECT_ID":"2022-052BD","APOAPSIS":"351.973","MEAN_MOTION_DOT":"0.00003449","GP_ID":"207632941"},{"DECAY_DATE":null,"RCS_SIZE":"LARGE","SEMIMAJOR_AXIS":"6727.835","CENTER_NAME":"EARTH","EPOCH":"2022-07-07T22:00:00.999936","MEAN_ANOMALY":"275.4729","INCLINATION":"53.2142","MEAN_MOTION":"15.73221118","OBJECT_TYPE":"PAYLOAD","OBJECT_NAME":"STARLINK-3891","PERIOD":"91.532","ARG_OF_PERICENTER":"16.5064","NORAD_CAT_ID":"52650","COUNTRY_CODE":"US","TIME_SYSTEM":"UTC","MEAN_MOTION_DDOT":"0.0000000000000","FILE":"3509470","TLE_LINE2":"2 52650  53.2142 171.9338 0002968  16.5064 275.4729 15.73221118  1307","TLE_LINE1":"1 52650U 22052BE  22188.91667824 -.00011711  00000-0 -79023-4 0  9991","ECCENTRICITY":"0.00029680","BSTAR":"-0.00007902300000","LAUNCH_DATE":"2022-05-14","REV_AT_EPOCH":"130","ELEMENT_SET_NO":"999","CLASSIFICATION_TYPE":"U","PERIAPSIS":"347.703","RA_OF_ASC_NODE":"171.9338","REF_FRAME":"TEME","MEAN_ELEMENT_THEORY":"SGP4","APOAPSIS":"351.697","MEAN_MOTION_DOT":"-0.00011711","GP_ID":"207633043","OBJECT_ID":"2022-052BE","SITE":"AFETR","EPHEMERIS_TYPE":"0"},{"RA_OF_ASC_NODE":"53.7388","PERIAPSIS":"487.049","CLASSIFICATION_TYPE":"U","REV_AT_EPOCH":"869","ELEMENT_SET_NO":"999","LAUNCH_DATE":"2022-05-18","BSTAR":"-0.00896070000000","TLE_LINE1":"1 52656U 22053A   22188.91390870 -.00225590  00000-0 -89607-2 0  9991","ECCENTRICITY":"0.00018480","EPHEMERIS_TYPE":"0","SITE":"AFETR","OBJECT_ID":"2022-053A","MEAN_MOTION_DOT":"-0.00225590","GP_ID":"207632586","APOAPSIS":"489.586","MEAN_ELEMENT_THEORY":"SGP4","REF_FRAME":"TEME","OBJECT_TYPE":"PAYLOAD","MEAN_MOTION":"15.25822915","INCLINATION":"53.2164","MEAN_ANOMALY":"299.8702","CENTER_NAME":"EARTH","EPOCH":"2022-07-07T21:56:01.711680","SEMIMAJOR_AXIS":"6866.452","RCS_SIZE":"LARGE","DECAY_DATE":null,"TLE_LINE2":"2 52656  53.2164  53.7388 0001848  60.2482 299.8702 15.25822915  8694","FILE":"3509470","MEAN_MOTION_DDOT":"0.0000000000000","TIME_SYSTEM":"UTC","COUNTRY_CODE":"US","NORAD_CAT_ID":"52656","PERIOD":"94.375","ARG_OF_PERICENTER":"60.2482","OBJECT_NAME":"STARLINK-4004"},{"NORAD_CAT_ID":"52657","COUNTRY_CODE":"US","OBJECT_NAME":"STARLINK-4084","ARG_OF_PERICENTER":"58.4748","PERIOD":"94.476","TLE_LINE2":"2 52657  53.2173  53.6904 0001392  58.4748 293.3412 15.24200909  8998","TIME_SYSTEM":"UTC","MEAN_MOTION_DDOT":"0.0000000000000","FILE":"3509323","RCS_SIZE":"LARGE","SEMIMAJOR_AXIS":"6871.323","EPOCH":"2022-07-07T22:00:00.999936","MEAN_ANOMALY":"293.3412","CENTER_NAME":"EARTH","DECAY_DATE":null,"OBJECT_TYPE":"PAYLOAD","INCLINATION":"53.2173","MEAN_MOTION":"15.24200909","MEAN_ELEMENT_THEORY":"SGP4","REF_FRAME":"TEME","SITE":"AFETR","EPHEMERIS_TYPE":"0","APOAPSIS":"494.144","MEAN_MOTION_DOT":"-0.00725376","GP_ID":"207604463","OBJECT_ID":"2022-053B","LAUNCH_DATE":"2022-05-18","REV_AT_EPOCH":"899","ELEMENT_SET_NO":"999","TLE_LINE1":"1 52657U 22053B   22188.91667824 -.00725376  00000-0 -31519-1 0  9993","ECCENTRICITY":"0.00013920","BSTAR":"-0.03151900000000","RA_OF_ASC_NODE":"53.6904","CLASSIFICATION_TYPE":"U","PERIAPSIS":"492.232"},{"SITE":"AFETR","EPHEMERIS_TYPE":"0","APOAPSIS":"493.610","GP_ID":"207604462","MEAN_MOTION_DOT":"-0.00725946","OBJECT_ID":"2022-053C","MEAN_ELEMENT_THEORY":"SGP4","REF_FRAME":"TEME","RA_OF_ASC_NODE":"53.6957","CLASSIFICATION_TYPE":"U","PERIAPSIS":"491.625","LAUNCH_DATE":"2022-05-18","REV_AT_EPOCH":"881","ELEMENT_SET_NO":"999","ECCENTRICITY":"0.00014450","TLE_LINE1":"1 52658U 22053C   22188.91667824 -.00725946  00000-0 -31366-1 0  9997","BSTAR":"-0.03136600000000","TLE_LINE2":"2 52658  53.2173  53.6957 0001445  54.0485 310.8715 15.24390727  8816","TIME_SYSTEM":"UTC","MEAN_MOTION_DDOT":"0.0000000000000","FILE":"3509323","NORAD_CAT_ID":"52658","COUNTRY_CODE":"US","OBJECT_NAME":"STARLINK-4082","PERIOD":"94.464","ARG_OF_PERICENTER":"54.0485","OBJECT_TYPE":"PAYLOAD","INCLINATION":"53.2173","MEAN_MOTION":"15.24390727","RCS_SIZE":"LARGE","SEMIMAJOR_AXIS":"6870.753","CENTER_NAME":"EARTH","EPOCH":"2022-07-07T22:00:00.999936","MEAN_ANOMALY":"310.8715","DECAY_DATE":null}];
